 2014  121 0321 25.9 LQ 38.637 -29.115  7.2 *AZO  7 0.1 2.1LAZO 2.3CAZO        1
 GAP=338        0.37       4.4     5.2  4.9  0.5891E-02 -0.1925E+02  0.1545E+01E
 ACTION:UPD 24-11-22 11:01 OP:RS   STATUS:               ID:20140121032125     I
 OP: CVUA-IA/AR                                                                3
 STATUS: OK                                                                    3
 PUB: EPI                                                                      3
 WEB: SIM                                                                      3
 REGIAO: W Faial,SZ31,FE95 405                                                 3
 2014-01-21-0321-03S_SWARM.SEI                                                 6
 STAT SP IPHASW D HRMM SECON CODA AMPLIT PERI AZIMU VELO AIN AR TRES W  DIS CAZ7
 PTCA EZ IP     D  321 30.77   33                         63    0.1110 28.3 102 
 PTCA EN ES        321 34.29                              63    0.1010 28.3 102 
 PTCA EZ  IAML     321 34.99       143.3 0.23                          28.3 102 
 PCUT EN ES        321 35.95                              63    0.0810 35.2  92 
 PCUT EZ  IAML     321 36.47       467.4 0.39                          35.2  92 
 PLGR EZ EP        321 32.57   34                         63   -0.0810 42.4  97 
 PLGR EN ES        321 37.45                              63   -0.2210 42.4  97 
 PLGR EZ  IAML     321 38.11        68.7 0.25                          42.4  97 
 PCND EZ EP        321 35.04   32                         63   -0.0410 59.8 108 
 PCND EN ES        321 41.98                              63    0.0510 59.8 108 
 PCND EZ  IAML     321 42.46        63.1 0.39                          59.8 108 
 PTEI EZ E         321 37.76                                           67.9 103 
 PTEI EN ES        321 43.75                              53   -0.1310 67.9 103 
 PBOI EN ES        321 43.94                              53    0.0610 68.2 109 
 ROSA BN ES   4    321 44.37                              53   -1.28 0 76.5  83 
 PAMA EN ES        321 46.82                              53    0.0710 81.5  86 
 PAMA EZ  IAML     321 47.72       103.4 0.25                          81.5  86 
                                                                                
 2014  122 0737  8.6 LQ 36.996 -24.214 17.4 *AZO 15 0.2 2.8LAZO 3.0CAZO        1
 GAP=312        0.64       5.2    11.8159.4  0.5013E+02 -0.1735E+04 -0.7225E+03E
 ACTION:UPD 24-11-22 11:01 OP:RS   STATUS:               ID:20140122073708     I
 OP: CVUA-SA/RC                                                                3
 STATUS: OK                                                                    3
 PUB: EPI                                                                      3
 WEB: SIM                                                                      3
 REGIAO: Falha Gloria,SZ11,FE95 404                                            3
 2014-01-22-0737-01S_SWARM.SEI                                                 6
 STAT SP IPHASW D HRMM SECON CODA AMPLIT PERI AZIMU VELO AIN AR TRES W  DIS CAZ7
 PSPR EZ IP     C  737 19.34   60                         94    0.2610 73.4 266 
 PSPR EN ES        737 26.83                              94   -0.0810 73.4 266 
 PSPR EZ  IAML     737 28.09       233.0 0.27                          73.4 266 
 PVPO EZ IP     C  737 20.43   64                         93    0.0010 84.4 267 
 PVPO EN ES        737 29.21                              93   -0.0610 84.4 267 
 PVPO EZ  IAML     737 29.84        73.6 0.23                          84.4 267 
 MIRA EZ EP        737 25.79   49                         92   -0.2710  129 313 
 MIRA EZ ES        737 38.84                              92   -0.2810  129 313 
 FRA1 EN E         737 39.88                                            131 310 
 PCNG EN E         737 41.52                                            135 310 
 VIF  EZ EP        737 26.85   49                         92   -0.1910  137 308 
 VIF  EN ES        737 40.80                              92   -0.0410  137 308 
 VIF  EZ  IAML     737 40.89        40.7 0.28                           137 308 
 PRCH EN ES        737 40.90                              92   -0.2210  139 306 
 PRCH EZ  IAML     737 41.93       248.5 0.34                           139 306 
 MESC EZ EP        737 27.56   50                         92    0.0410  140 309 
 MESC EN ES        737 42.01                              92    0.3310  140 309 
 MESC EZ  IAML     737 43.14        45.2 0.66                           140 309 
 LFA  EZ EP        737 27.61   54                         92   -0.0510  142 308 
 PMAT EN ES        737 42.78                              92    0.5010  144 310 
 PVER EN ES        737 42.62                              92   -0.0110  146 308 
 CML  EZ EP        737 28.14   49                         92   -0.0110  146 307 
 CML  EZ ES        737 42.92                              92    0.1410  146 307 
 FAC  EZ ES        737 44.63                              91    0.1810  154 305 
 PSAN EZ EP        737 30.65   50                         91    0.2310  164 306 
 PFET EZ ES        737 46.85                              91   -0.4510  167 304 
                                                                                
 2014  122 1156  3.1 LQ 38.028 -25.812  0.0 *AZO 22 0.3 2.4LAZO 2.4CAZO        1
 GAP=174        0.84       2.0     2.3  3.1  0.2948E+01 -0.1306E+00 -0.2479E+01E
 ACTION:UPD 24-11-22 11:01 OP:RS   STATUS:               ID:20140122115603     I
 OP: CVUA-RC/RS                                                                3
 STATUS: OK                                                                    3
 PUB: EPI                                                                      3
 WEB: SIM                                                                      3
 REGIAO: Fossa Hirondelle,SZ18,FE95 405                                        3
 2014-01-22-1155-18S_SWARM.SEI                                                 6
 2014-01-22-1156-01S_SWARM.SEI                                                 6
 STAT SP IPHASW D HRMM SECON CODA AMPLIT PERI AZIMU VELO AIN AR TRES W  DIS CAZ7
 SET4 EZ EP       1156  6.43   36                         91    0.2310 17.0 176 
 SET4 EZ ES       1156  8.83                              91    0.3010 17.0 176 
 SET2 EZ ES       1156  8.96                              59   -0.6410 20.5 179 
 PSAN EZ EP       1156  6.93   32                         59    0.0410 21.0 159 
 PSAN EZ ES       1156 10.19                              59    0.4610 21.0 159 
 PFET EZ IP     C 1156  7.07   34                         59   -0.1810 23.4 175 
 PFET EZ ES       1156 10.19                              59   -0.1810 23.4 175 
 FAC  EZ EP       1156  8.64   40                         59    0.1210 31.6 153 
 FAC  EZ ES       1156 12.82                              59    0.2410 31.6 153 
 PVER EN ES       1156 14.26                              59    0.3110 36.6 134 
 PVER EZ  IAML    1156 15.61       353.0 0.42                          36.6 134 
 CML  EZ EP       1156  9.11   51                         59   -0.2410 36.8 140 
 CML  EZ ES       1156 14.06                              59    0.0210 36.8 140 
 PMAT EZ IP     C 1156  9.46   47                         59   -0.0810 38.1 128 
 PMAT EN ES       1156 14.72                              59    0.3510 38.1 128 
 PMAT EZ  IAML    1156 15.90       599.4 0.39                          38.1 128 
 LFA  EZ IP     C 1156  9.70                              59   -0.2510 40.4 134 
 MESC EZ IP     C 1156  9.90   40                         59   -0.2110 41.4 129 
 MESC EN ES       1156 15.66                              59    0.2910 41.4 129 
 MESC EZ  IAML    1156 16.40       215.4 0.44                          41.4 129 
 PRCH EZ EP       1156 10.19   38                         59   -0.3110 44.3 139 
 PRCH EN ES       1156 15.63                              59   -0.4310 44.3 139 
 PRCH EZ  IAML    1156 16.98       800.4 0.27                          44.3 139 
 VIF  EZ EP       1156 10.69   37                         59   -0.0210 45.3 134 
 VIF  EN ES       1156 16.33                              59   -0.0910 45.3 134 
 VIF  EZ  IAML    1156 17.18       160.3 0.20                          45.3 134 
 PCNG EN ES       1156 17.03                              59    0.2610 46.6 128 
 MIRA EZ EP       1156 11.66                              50   -0.4110 54.0 120 
 MIRA EZ E        1156 17.57                                           54.0 120 
 PVPO EE E        1156 35.01                                            132 154 
 PFAV EZ E        1156 40.37                                            135 305 
 PRIB EN ES       1156 37.29                              43   -0.4910  139 301 
 PSPR EE E        1156 37.06                                            139 150 
 PVNV EN ES       1156 38.91                              43    0.2810  143 305 
 PPAD EN ES       1156 40.12                              43    0.1310  149 301 
 PBIS EN E        1156 40.31                                            150 303 
 ASBA EN ES       1156 41.53                              43    0.4910  153 301 
                                                                                
 2014  123 0244 55.0 LQ 38.098 -26.435  0.0 *AZO 16 0.2 2.2LAZO 2.5CAZO        1
 GAP=193        0.67      12.7    11.0  3.5  0.1387E+03 -0.2793E+02 -0.3228E+02E
 ACTION:UPD 24-11-22 11:01 OP:RS   STATUS:               ID:20140123024455     I
 OP: CVUA-AP/RS                                                                3
 STATUS: OK                                                                    3
 PUB: EPI                                                                      3
 WEB: SIM                                                                      3
 REGIAO: Fossa Hirondelle,SZ18,FE95 405                                        3
 2014-01-23-0244-46S_SWARM.SEI                                                 6
 STAT SP IPHASW D HRMM SECON CODA AMPLIT PERI AZIMU VELO AIN AR TRES W  DIS CAZ7
 SET4 EZ EP        245  4.66   35                         50   -0.2110 61.1 114 
 SET4 EZ ES        245 12.24                              50   -0.0610 61.1 114 
 SET2 EZ EP        245  4.95   33                         50   -0.0610 62.0 117 
 SET2 EZ ES        245 12.89                              50    0.3510 62.0 117 
 PFET EZ EP        245  5.12   36                         50   -0.2510 64.7 119 
 PFET EZ ES        245 13.66                              50    0.4910 64.7 119 
 PSAN EZ EP        245  5.74   34                         50   -0.0910 68.0 114 
 PSAN EZ ES        245 13.87                              50   -0.1210 68.0 114 
 FAC  EZ EP        245  7.43   33                         43    0.3010 77.8 117 
 FAC  EZ ES        245 16.00                              43   -0.2510 77.8 117 
 CML  EZ EP        245  8.04   30                         43   -0.1510 86.1 115 
 CML  EZ ES        245 17.88                              43   -0.2210 86.1 115 
 PVER EZ EP        245  8.21   33                         43   -0.1310 87.5 112 
 PVER EN ES        245 18.50                              43    0.1310 87.5 112 
 PVER EZ  IAML     245 19.46        36.1 0.33                          87.5 112 
 CMLA BZ EP   9    245  7.46   34                         43   -0.99 0 88.2 115 
 CMLA B2 ES        245 17.72                                    0.1410 88.2 115 
 PMAT EZ EP        245  8.54   37                         43   -0.1610 90.3 110 
 PMAT EN ES        245 19.16                              43    0.1610 90.3 110 
 PRIB EZ EP        245  8.67   31                         43   -0.0910 90.6 315 
 PRIB EN ES        245 19.03                              43   -0.0810 90.6 315 
 PRIB EZ  IAML     245 19.52       107.9 0.11                          90.6 315 
 LFA  EZ EP        245  8.47   32                         43   -0.3910 91.1 113 
 LFA  EZ ES        245 19.58                              43    0.3010 91.1 113 
 MESC EZ EP        245  8.90   34                         43   -0.2510 93.3 111 
 MESC EN ES        245 19.81                              43    0.0310 93.3 111 
 MESC EZ  IAML     245 20.14        22.7 0.56                          93.3 111 
 PRCH EN ES        245 19.89                              43    0.2010 93.4 116 
 PVNV EZ EP        245  9.30   34                         43   -0.2210 96.9 320 
 PVNV EN ES        245 20.23                              43   -0.2110 96.9 320 
 PVNV EZ  IAML     245 21.15        56.3 0.09                          96.9 320 
 PPAD EZ EP        245 10.42   30                         43    0.4810  100 312 
 PPAD EN ES        245 21.42                              43    0.2610  100 312 
 PPAD EZ  IAML     245 22.29        22.1 0.25                           100 312 
 ASBA EN ES        245 22.43                              43    0.2410  104 312 
 ASBA EZ  IAML     245 24.22        31.4 0.09                           104 312 
                                                                                
 2014  123 0949 25.0 LQ 37.229 -24.555 33.9 *AZO 14 0.3 2.6LAZO 2.8CAZO        1
 GAP=279        0.93       5.9    18.7 31.3  0.9577E+02 -0.5305E+03 -0.1659E+03E
 ACTION:UPD 24-11-22 11:01 OP:RS   STATUS:               ID:20140123094925     I
 OP: CVUA-IA/RS                                                                3
 STATUS: OK                                                                    3
 PUB: EPI                                                                      3
 WEB: SIM                                                                      3
 REGIAO: E Ilheus das Formigas,SZ13,FE95 404                                   3
 2014-01-23-0949-09S_SWARM.SEI                                                 6
 STAT SP IPHASW D HRMM SECON CODA AMPLIT PERI AZIMU VELO AIN AR TRES W  DIS CAZ7
 PSPR EZ IP     C  949 33.50   53                        118   -0.0810 53.3 233 
 PSPR EN ES        949 40.44                             118    0.4310 53.3 233 
 PSPR EZ  IAML     949 41.13       181.0 0.17                          53.3 233 
 PVPO EZ IP     C  949 34.21   48                        114   -0.3010 61.8 241 
 PVPO EN ES        949 41.36                             114   -0.2810 61.8 241 
 PVPO EZ  IAML     949 42.41        53.2 0.36                          61.8 241 
 MIRA EZ EP        949 37.27   40                        106   -0.5310 88.9 314 
 MIRA EZ ES        949 46.77                             106   -0.6210 88.9 314 
 FRA1 EN ES        949 47.83                             106    0.1210 90.7 309 
 PCNG EN ES        949 49.10                             105    0.4010 95.3 309 
 VIF  EZ EP        949 39.08   48                        105    0.3310 96.9 307 
 VIF  EN ES        949 49.36                             105    0.3010 96.9 307 
 VIF  EZ  IAML     949 49.60        65.6 0.38                          96.9 307 
 PRCH EZ EP        949 39.15   58                        104    0.2310 98.8 304 
 PRCH EN ES        949 49.15                             104   -0.1910 98.8 304 
 PRCH EZ  IAML     949 49.98       171.3 0.23                          98.8 304 
 MESC EZ EP        949 39.31   46                        104    0.1010  101 309 
 MESC EN ES        949 50.24                             104    0.3810  101 309 
 MESC EZ  IAML     949 50.79        71.9 0.45                           101 309 
 LFA  EZ EP        949 39.59   53                        104    0.2410  102 307 
 LFA  EZ ES        949 49.83                             104   -0.2810  102 307 
 PMAT EN ES        949 50.73                             103    0.2910  104 309 
 PMAT EZ  IAML     949 51.41        87.4 0.25                           104 309 
 CMLA B2 ES   4    949 48.90                             103   -1.62 0  104 305 
 CML  EZ EP        949 39.87   47                        103    0.0310  106 305 
 CML  EZ ES        949 50.38                             103   -0.5710  106 305 
 FAC  EZ E         949 52.85                                            114 302 
 PSAN EZ ES   4    949 55.79                             101    0.94 0  124 304 
 PFET EZ E         949 53.55                                            127 301 
 SET2 EZ E         949 47.07                                            130 302 
                                                                                
 2014  126 0117 25.6 LQ 38.334 -26.843  8.1 *AZO 19 0.4 2.2LAZO 2.0CAZO        1
 GAP=195        1.17      10.7    12.6 10.1  0.1311E+03 -0.6700E+02 -0.4421E+02E
 ACTION:UPD 24-11-22 11:01 OP:RS   STATUS:               ID:20140126011725     I
 OP: CVUA-RC                                                                   3
 STATUS: OK                                                                    3
 PUB: NAO                                                                      3
 WEB: SIM                                                                      3
 REGIAO: SE Terceira,SZ20,FE95 405                                             3
 2014-01-26-0116-58S_SWARM.SEI                                                 6
 STAT SP IPHASW D HRMM SECON CODA AMPLIT PERI AZIMU VELO AIN AR TRES W  DIS CAZ7
 PFAV EZ EP        117 32.38   22                         63   -0.4010 46.9 333 
 PFAV EN ES        117 38.64                              63    0.4410 46.9 333 
 PFAV EZ  IAML     117 40.88        74.8 0.09                          46.9 333 
 PRIB EZ EP        117 32.74   23                         63   -0.1310 47.3 323 
 PRIB EN ES        117 38.73                              63    0.3910 47.3 323 
 PRIB EZ  IAML     117 39.35       173.9 0.16                          47.3 323 
 PVNV EZ EP        117 33.38   23                         63   -0.5110 54.8 330 
 PVNV EN ES        117 39.93                              63   -0.2010 54.8 330 
 PVNV EZ  IAML     117 42.88        77.9 0.14                          54.8 330 
 PPAD EZ EP        117 33.54   22                         63   -0.5610 56.2 317 
 PPAD EN ES        117 40.81                              63    0.3210 56.2 317 
 PPAD EZ  IAML     117 42.64       260.5 0.19                          56.2 317 
 PBIS EN ES        117 41.19                              63   -0.1110 59.4 323 
 PBIS EZ  IAML     117 42.34       107.8 0.17                          59.4 323 
 ASBA EZ EP        117 34.45                              63   -0.2810 60.5 315 
 ASBA EN ES        117 41.79                              63    0.1910 60.5 315 
 ASBA EZ  IAML     117 43.42       125.9 0.31                          60.5 315 
 SET4 EZ ES        117 51.18                              53   -0.1410  105 119 
 PIED EZ E         117 44.70                                            106 275 
 SET2 EZ ES        117 51.74                              53    0.1410  106 121 
 PFET EZ E         117 42.09                                            109 121 
 PSAN EZ ES        117 52.50                              53   -0.3310  112 118 
 FAC  EZ ES        117 54.86                              53   -0.1210  122 120 
 PVER EE E         117 57.41                                            131 117 
 PMAT EN ES        117 57.31                              53   -0.2310  133 115 
 LFA  EZ EP        117 44.80                              53    0.7510  135 117 
 MESC EN ES        117 57.87                              53   -0.4810  136 116 
 PRCH EN E         117 59.16                                            137 119 
 VIF  EE E         118  1.08                                            139 117 
 MIRA EZ EP        117 47.14                              53    1.1410  150 113 
 MIRA EZ ES        118  1.43                              53    0.1110  150 113 
                                                                                
