 2014  1 9 2224 43.4 LQ 37.442 -24.806  0.7 *AZO 18 0.3 2.9LAZO 3.2CAZO        1
 GAP=247        0.72       3.5    14.6  9.2  0.4637E+02  0.1281E+03  0.2725E+02E
 ACTION:UPD 24-11-22 11:01 OP:RS   STATUS:               ID:20140109222443     I
 OP: CVUA-RM                                                                   3
 STATUS: OK                                                                    3
 PUB: EPI                                                                      3
 WEB: SIM                                                                      3
 REGIAO: Fossa da Povoacao,SZ13,FE95 404                                       3
 2014-01-09-2224-00S_SWARM.SEI                                                 6
 STAT SP IPHASW D HRMM SECON CODA AMPLIT PERI AZIMU VELO AIN AR TRES W  DIS CAZ7
 MIRA EZ EP       2224 52.17   65                         50   -0.4610 56.5 313 
 FRA1 EZ EP       2224 53.37   85                         50    0.4710 58.7 305 
 FRA1 EN ES       2224 59.43                              50   -0.6110 58.7 305 
 FRA1 EZ  IAML    2225  1.59       391.7 0.23                          58.7 305 
 PSPR EZ EP       2224 52.91   82                         50   -0.0210 59.1 200 
 PSPR EN ES       2225  0.33                              50    0.2510 59.1 200 
 PSPR EZ  IAML    2225  2.73       296.7 0.33                          59.1 200 
 PVPO EZ EP       2224 53.14   93                         50   -0.2410 62.5 210 
 PVPO EN ES       2225  0.70                              50   -0.1710 62.5 210 
 PVPO EZ  IAML    2225  1.00       201.2 0.19                          62.5 210 
 PCNG EZ EP       2224 53.90   63                         50    0.3410 63.3 305 
 PCNG EN ES       2225  0.94                              50   -0.2410 63.3 305 
 PCNG EZ  IAML    2225  3.22       125.7 0.48                          63.3 305 
 VIF  EZ EP       2224 53.87   82                         50    0.0410 65.3 301 
 VIF  EN ES       2225  1.85                              50    0.1910 65.3 301 
 VIF  EZ  IAML    2225  2.96       778.3 0.20                          65.3 301 
 PRCH EZ EP       2224 53.97   74                         50   -0.1110 67.4 298 
 PRCH EN ES       2225  2.25                              50    0.1510 67.4 298 
 PRCH EZ  IAML    2225  3.45       898.9 0.19                          67.4 298 
 MESC EZ EP       2224 54.12   96                         50   -0.1910 68.6 305 
 MESC EN ES       2225  2.42                              50   -0.0810 68.6 305 
 MESC EZ  IAML    2225  4.09       420.2 0.23                          68.6 305 
 LFA  EZ EP       2224 54.48   86                         50   -0.0310 70.1 302 
 PMAT EZ EP       2224 54.42   76                         50   -0.2810 71.9 305 
 PMAT EN ES       2225  3.60                              50    0.4210 71.9 305 
 PMAT EZ  IAML    2225  4.03       381.7 0.20                          71.9 305 
 CMLA BZ EP   9   2224 53.80   79                         50   -1.04 0 72.8 300 
 CMLA B2 ES       2225  2.56                                    0.1810 72.8 300 
 PVER EZ EP       2224 55.25   76                         50    0.2810 73.9 303 
 PVER EN ES       2225  3.53                              50   -0.1210 73.9 303 
 PVER EZ  IAML    2225  4.69       259.7 0.38                          73.9 303 
 CML  EZ EP       2224 54.98   77                         50   -0.1410 74.8 300 
 CML  EZ ES       2225  4.11                              50    0.2010 74.8 300 
 FAC  EZ EP   4   2224 56.89   71                         43    0.75 0 83.1 297 
 FAC  EZ ES       2225  5.55                              43   -0.1510 83.1 297 
 PSAN EZ EP       2224 57.50   68                         43    0.1010 93.0 300 
 PSAN EZ ES       2225  8.31                              43    0.4010 93.0 300 
 PFET EZ EP       2224 57.99   66                         43    0.1910 96.2 296 
 PFET EZ ES       2225  8.56                              43   -0.0410 96.2 296 
 SET2 EZ EP       2224 58.55   70                         43    0.3910 98.9 297 
 SET2 EZ ES       2225  9.05                              43   -0.1810 98.9 297 
 SET4 EZ EP       2224 58.16   69                         43   -0.1010 99.9 299 
 SET4 EZ ES       2225  9.18                              43   -0.2410 99.9 299 
                                                                                
 2014  111 1337 24.9 LQ 37.605 -25.179  6.6 *AZO 14 0.2 2.0LAZO 2.3CAZO        1
 GAP=317        0.69       4.0     4.5  2.7  0.8869E+01  0.7143E+01  0.6380E+01E
 ACTION:UPD 24-11-22 11:01 OP:RS   STATUS:               ID:20140111133724     I
 OP: CVUA-IA/RC                                                                3
 STATUS: OK                                                                    3
 PUB: EPI                                                                      3
 WEB: SIM                                                                      3
 REGIAO: Fossa da Povoacao,SZ13,FE95 405                                       3
 2014-01-11-1336-29S_SWARM.SEI                                                 6
 STAT SP IPHASW D HRMM SECON CODA AMPLIT PERI AZIMU VELO AIN AR TRES W  DIS CAZ7
 FRA1 EZ EP       1337 28.15                             104   -0.4910 21.6 315 
 FRA1 EN ES       1337 31.78                             104    0.3310 21.6 315 
 FRA1 EZ  IAML    1337 32.57       310.2 0.27                          21.6 315 
 MIRA EZ IP     C 1337 28.96   30                        104    0.2510 22.0 337 
 MIRA EZ ES       1337 31.36                             104   -0.2110 22.0 337 
 PCNG EZ EP       1337 28.85   24                        101   -0.5010 26.3 314 
 PCNG EN ES       1337 32.76                             101    0.0710 26.3 314 
 PCNG EZ  IAML    1337 33.38        37.6 0.14                          26.3 314 
 VIF  EZ EP       1337 29.51   45                        100   -0.0710 27.7 304 
 VIF  EN ES       1337 33.36                             100    0.2610 27.7 304 
 VIF  EZ  IAML    1337 34.08       245.8 0.17                          27.7 304 
 PRCH EZ EP       1337 30.08   29                         63    0.2310 29.8 297 
 PRCH EN ES       1337 33.42                              63   -0.1510 29.8 297 
 PRCH EZ  IAML    1337 34.57      1059.5 0.33                          29.8 297 
 MESC EZ EP       1337 30.30                              63    0.1510 31.4 312 
 MESC EN ES       1337 34.14                              63    0.0610 31.4 312 
 MESC EZ  IAML    1337 34.50       194.6 0.14                          31.4 312 
 LFA  EZ EP       1337 30.59   31                         63    0.2910 32.6 305 
 PMAT EZ EP       1337 30.62   24                         63    0.0810 34.8 312 
 PMAT EN ES       1337 34.62                              63   -0.1610 34.8 312 
 PMAT EZ  IAML    1337 35.76       173.7 0.20                          34.8 312 
 CMLA B1 ES   4   1337 33.99                              63   -0.90 0 35.1 300 
 CML  EZ EP       1337 31.16   46                         63    0.2710 37.2 300 
 CML  EZ ES       1337 35.29                              63   -0.0910 37.2 300 
 FAC  EZ EP       1337 31.83   39                         63   -0.2010 45.5 295 
 FAC  EZ ES       1337 36.98                              63   -0.4110 45.5 295 
 PSAN EZ EP       1337 33.25   30                         63   -0.1710 55.4 300 
 PSAN EZ ES       1337 40.11                              63    0.2910 55.4 300 
 PFET EZ E        1337 34.11                                           58.7 294 
 PFET EZ ES       1337 40.74                              63    0.1310 58.7 294 
 SET2 EZ EP       1337 34.48   44                         63    0.2210 61.3 296 
 SET2 EZ ES       1337 41.03                              63   -0.2610 61.3 296 
 SET4 EZ E        1337 34.58                                           62.3 299 
 SET4 EZ ES       1337 41.57                              63    0.0810 62.3 299 
                                                                                
 2014  114 0756  0.2 LQ 38.530 -29.435  0.0 *AZO  7 0.1 2.4LAZO 2.3CAZO        1
 GAP=344        0.36       6.4     8.4  6.1 -0.3015E+02 -0.4733E+02  0.1987E+02E
 ACTION:UPD 24-11-22 11:01 OP:RS   STATUS:               ID:20140114075600     I
 OP: CVUA-RC                                                                   3
 STATUS: OK                                                                    3
 PUB: EPI                                                                      3
 WEB: SIM                                                                      3
 REGIAO: W Faial,SZ31,FE95 405                                                 3
 2014-01-14-0755-37S_SWARM.SEI                                                 6
 STAT SP IPHASW D HRMM SECON CODA AMPLIT PERI AZIMU VELO AIN AR TRES W  DIS CAZ7
 PTCA EZ EP        756  9.49   26                         50    0.1610 55.9  84 
 PTCA EN ES        756 16.27                              50    0.0610 55.9  84 
 PTCA EZ  IAML     756 17.45       222.3 0.28                          55.9  84 
 PCTB EZ EP        756  9.85   31                         50   -0.1010 60.5  90 
 PCTB EN ES        756 17.15                              50   -0.1410 60.5  90 
 PCTB EZ  IAML     756 18.81       194.3 0.14                          60.5  90 
 PCUT EN ES        756 18.19                              50    0.0110 64.0  80 
 PCUT EZ  IAML     756 18.94       183.6 0.25                          64.0  80 
 PCND EN ES        756 23.06                              43   -0.0910 85.1  94 
 PCND EZ  IAML     756 27.57        53.7 0.60                          85.1  94 
 PBOI EZ EP        756 14.21   33                         43   -0.0710 93.0  96 
 PBOI EN ES        756 25.00                              43    0.1410 93.0  96 
 PBOI EZ  IAML     756 26.39        60.8 0.41                          93.0  96 
 PTEI EN ES        756 25.28                              43    0.1110 94.1  92 
 ROSA BE ES   4    756 26.52                              43   -1.13 0  106  78 
 PAMA EE ES        756 28.58                              43   -0.0810  111  81 
                                                                                
 2014  115 0550  8.7 LQ 37.476 -24.668  5.1 *AZO 14 0.3 2.3LAZO 2.1CAZO        1
 GAP=266        0.71       3.5    17.7 15.4  0.5281E+02  0.2528E+03  0.3904E+02E
 ACTION:UPD 24-11-22 11:01 OP:RS   STATUS:               ID:20140115055008     I
 OP: CVUA-RS                                                                   3
 STATUS: OK                                                                    3
 PUB: EPI                                                                      3
 WEB: SIM                                                                      3
 REGIAO: Fossa da Povoacao,SZ13,FE95 404                                       3
 2014-01-15-0550-00S_SWARM.SEI                                                 6
 STAT SP IPHASW D HRMM SECON CODA AMPLIT PERI AZIMU VELO AIN AR TRES W  DIS CAZ7
 MIRA EZ ES        550 25.51                              63   -0.4510 63.9 303 
 FRA1 EN E         550 30.95                                           67.3 296 
 PSPR EZ EP        550 19.20   21                         63    0.1710 67.6 209 
 PSPR EN ES        550 26.97                              63    0.2010 67.6 209 
 PSPR EZ  IAML     550 27.68        66.4 0.22                          67.6 209 
 PCNG EN ES        550 27.49                              53   -0.3110 71.9 297 
 PVPO EZ EP        550 19.46   22                         53   -0.1610 72.5 217 
 PVPO EN ES        550 27.44                              53   -0.3710 72.5 217 
 PVPO EZ  IAML     550 28.05        49.1 0.27                          72.5 217 
 VIF  EN ES        550 28.87                              53    0.5210 74.4 294 
 PRCH EN ES        550 28.89                              53    0.0710 77.0 292 
 PRCH EZ  IAML     550 30.14       115.1 0.37                          77.0 292 
 MESC EN ES        550 29.09                              53    0.1010 77.1 297 
 LFA  EZ EP        550 20.58   22                         53    0.0510 79.1 295 
 PMAT EZ EP        550 20.51                              53   -0.1010 80.3 298 
 PMAT EZ  IAML     550 29.39        65.1 0.16                          80.3 298 
 PMAT EN ES        550 29.47                              53   -0.0810 80.3 298 
 CMLA B2 ES   4    550 30.27                              53    0.31 0 82.1 293 
 CML  EZ EP        550 21.22   27                         53    0.1210 84.1 293 
 FAC  EZ ES        550 32.51                              53    0.2410 92.8 291 
 PSAN EZ E         550 35.07                                            102 294 
 PFET EZ E         550 36.42                                            106 291 
                                                                                
 2014  115 1021 18.1 LQ 38.714 -29.090  0.1 *AZO  8 0.2 2.0LAZO 2.2CAZO        1
 GAP=329        0.46       3.9     6.1  4.6  0.1389E+02 -0.2205E+02 -0.7152E+01E
 ACTION:UPD 24-11-22 11:01 OP:RS   STATUS:               ID:20140115102118     I
 OP: CVUA-AR                                                                   3
 STATUS: OK                                                                    3
 PUB: EPI                                                                      3
 WEB: SIM                                                                      3
 REGIAO: W Faial,SZ31,FE95 405                                                 3
 2014-01-15-1020-46S_SWARM.SEI                                                 6
 STAT SP IPHASW D HRMM SECON CODA AMPLIT PERI AZIMU VELO AIN AR TRES W  DIS CAZ7
 PTCA EZ IP     D 1021 23.13   40                         59   -0.0310 29.3 119 
 PTCA EN IS       1021 27.00                              59    0.0410 29.3 119 
 PTCA EZ  IAML    1021 27.21       150.9 0.13                          29.3 119 
 PCUT EZ EP       1021 23.88   27                         59   -0.0810 34.4 106 
 PCUT EN IS       1021 28.25                              59   -0.1110 34.4 106 
 PCUT EZ  IAML    1021 28.70       388.3 0.11                          34.4 106 
 PCTB EZ EP       1021 24.00   23                         59   -0.2910 36.6 124 
 PCTB EN ES       1021 29.13                              59    0.1910 36.6 124 
 PLGR EZ EP       1021 25.31   36                         59    0.1110 42.2 109 
 PLGR EN ES       1021 30.62                              59    0.0910 42.2 109 
 PLGR EZ  IAML    1021 30.98        60.7 0.10                          42.2 109 
 PCND EN E        1021 36.15                                           61.1 116 
 PTEI EZ  IAML    1021 37.04        28.2 0.18                          68.4 111 
 PTEI EN ES       1021 37.09                              50   -0.1910 68.4 111 
 PBOI EN ES       1021 37.55                              50    0.0610 69.5 116 
 PBOI EZ  IAML    1021 37.87        26.2 0.11                          69.5 116 
 ROSA BN ES   4   1021 36.96                              50   -1.53 0 73.8  89 
 PAMA EZ EP       1021 30.74                              43    0.2710 79.3  92 
 PAMA EN ES       1021 39.68                              43   -0.0710 79.3  92 
 PAMA EZ  IAML    1021 40.35        86.0 0.24                          79.3  92 
                                                                                
 2014  115 1037 53.7 LQ 39.126 -28.466 10.6 *AZO 12 0.3 2.6LAZO 2.6CAZO        1
 GAP=251        0.90      13.1     4.6 21.8  0.3363E+02  0.7146E+02  0.2738E+03E
 ACTION:UPD 24-11-22 11:01 OP:RS   STATUS:               ID:20140115103753     I
 OP: CVUA-AR                                                                   3
 STATUS: OK                                                                    3
 PUB: EPI                                                                      3
 WEB: SIM                                                                      3
 REGIAO: W Graciosa,SZ27,FE95 405                                              3
 2014-01-15-1036-47S_SWARM.SEI                                                 6
 STAT SP IPHASW D HRMM SECON CODA AMPLIT PERI AZIMU VELO AIN AR TRES W  DIS CAZ7
 PVIA EZ EP       1037 59.24   30                         97   -0.1610 36.1 100 
 PVIA EN IS       1038  3.84                              97    0.1410 36.1 100 
 PVIA EZ  IAML    1038  4.13        97.3 0.23                          36.1 100 
 STGR EZ EP       1037 59.80   36                         96   -0.2110 40.5  97 
 STGR EN ES       1038  4.28                              96   -0.4910 40.5  97 
 STGR EZ  IAML    1038  4.91       426.1 0.28                          40.5  97 
 PLUZ EZ EP       1038  1.00   35                         95    0.5010 44.0 106 
 PLUZ EN ES       1038  5.71                              95    0.0910 44.0 106 
 PLUZ EZ  IAML    1038  6.67       342.2 0.31                          44.0 106 
 ROSA BN ES   4   1038  5.17                              94   -1.73 0 49.1 157 
 PAMA EZ EP       1038  2.27   57                         64    0.2110 55.4 153 
 PAMA EN ES       1038  8.20                              64   -0.1510 55.4 153 
 PAMA EZ  IAML    1038  8.31        89.6 0.08                          55.4 153 
 PCUT EZ IP     D 1038  2.39   33                         64   -0.1410 59.3 201 
 PCUT EN IS       1038  9.41                              64    0.2310 59.3 201 
 PCUT EZ  IAML    1038  9.57       309.6 0.24                          59.3 201 
 PLGR EZ IP     C 1038  2.56   43                         64   -0.2210 61.0 194 
 PLGR EN IS       1038  9.65                              64    0.0310 61.0 194 
 PLGR EZ  IAML    1038 10.58      1597.1 0.22                          61.0 194 
 PTCA EZ EP       1038  3.38   45                         64   -0.0610 66.5 206 
 PTCA EN ES       1038 10.18                              64   -0.5810 66.5 206 
 PTCA EZ  IAML    1038 10.43       196.8 0.26                          66.5 206 
 PCTB EZ EP       1038  3.70   30                         64   -0.1910 70.3 200 
 PCTB EN ES       1038 12.09                              64    0.5410 70.3 200 
 PCTB EZ  IAML    1038 12.53       202.5 0.46                          70.3 200 
 PTEI EZ EP       1038  4.43   43                         64    0.4110 70.6 172 
 PTEI EN ES       1038 12.19                              64    0.4010 70.6 172 
 PTEI EZ  IAML    1038 12.56        81.7 0.43                          70.6 172 
 PCND EZ EP       1038  4.29   55                         64    0.0110 72.9 180 
 PCND EZ  IAML    1038 11.39       255.3 0.40                          72.9 180 
 PCND EN ES       1038 11.69                              64   -0.5510 72.9 180 
 PBOI EZ EP       1038  5.17   58                         64    0.4010 76.9 174 
 PBOI EN ES       1038 12.70                              64   -0.4010 76.9 174 
 PBOI EZ  IAML    1038 13.27        56.8 0.11                          76.9 174 
 PIED EZ ES       1038 15.25                              64    0.1810 86.2 155 
                                                                                
