 2014  126 0117 49.3 LQ 38.314 -26.853  1.0 *AZO 21 0.3 2.5LAZO 2.6CAZO        1
 GAP=197        0.86       6.8     8.2  3.9  0.5466E+02 -0.1542E+02 -0.1079E+02E
 ACTION:UPD 24-11-22 11:01 OP:RS   STATUS:               ID:20140126011749     I
 OP: CVUA-RC                                                                   3
 STATUS: OK                                                                    3
 PUB: EPI                                                                      3
 WEB: SIM                                                                      3
 REGIAO: SE Terceira,SZ20,FE95 405                                             3
 2014-01-26-0116-58S_SWARM.SEI                                                 6
 STAT SP IPHASW D HRMM SECON CODA AMPLIT PERI AZIMU VELO AIN AR TRES W  DIS CAZ7
 PFAV EZ EP        117 57.55   41                         59    0.2610 48.5 335 
 PFAV EE ES        118  3.60                              59    0.3310 48.5 335 
 PFAV EZ  IAML     118  4.31       172.0 0.16                          48.5 335 
 PRIB EZ EP        117 57.69   50                         59    0.3710 48.6 325 
 PRIB EN ES        118  3.41                              59    0.0910 48.6 325 
 PRIB EZ  IAML     118  4.20       304.6 0.16                          48.6 325 
 PVNV EZ EP        117 58.03   48                         50   -0.4010 56.4 332 
 PVNV EN ES        118  4.75                              50   -0.5110 56.4 332 
 PVNV EZ  IAML     118  7.34       137.1 0.17                          56.4 332 
 PPAD EZ IP     C  117 58.45   40                         50   -0.1210 57.3 319 
 PPAD EN ES        118  5.56                              50    0.0510 57.3 319 
 PPAD EZ  IAML     118  8.34       373.2 0.16                          57.3 319 
 PBIS EN ES        118  6.23                              50   -0.1510 60.7 325 
 PBIS EZ  IAML     118  8.64       155.8 0.19                          60.7 325 
 ASBA EN ES        118  6.77                              50    0.1710 61.5 317 
 ASBA EZ  IAML     118  8.69       272.3 0.19                          61.5 317 
 SET4 EZ EP        118  4.62   36                         43   -0.1110  104 117 
 SET4 EZ ES        118 16.40                              43    0.1210  104 117 
 PIED EZ E         118  9.73                                            106 277 
 SET2 EZ EP        118  4.98   42                         43    0.1110  106 119 
 SET2 EZ ES        118 16.43                              43   -0.1110  106 119 
 PFET EZ EP        118  5.39   29                         43    0.1910  108 120 
 PFET EZ ES        118 17.38                              43    0.2610  108 120 
 PSAN EZ EP        118  5.48   30                         43   -0.1110  111 117 
 PSAN EZ ES        118 17.05                              43   -0.7410  111 117 
 FAC  EZ ES        118 20.42                              43    0.5010  121 119 
 CML  EZ ES        118 22.33                              43    0.6010  130 117 
 PVER EN ES        118 21.72                              43   -0.2310  131 116 
 PVER EZ  IAML     118 23.02        59.4 0.42                           131 116 
 PMAT EN ES        118 22.94                              43    0.4210  133 114 
 PMAT EZ  IAML     118 24.45        47.4 0.16                           133 114 
 LFA  EZ EP        118  8.50   41                         43    0.0010  134 116 
 MESC EZ EP        118  8.55   36                         43   -0.2110  136 115 
 MESC EN ES        118 23.11                              43   -0.2210  136 115 
 PRCH EE ES        118 22.97                              43   -0.3610  137 118 
 VIF  EN ES        118 24.06                              43    0.1410  139 116 
 PCNG EN E         118 25.51                                            142 115 
 MIRA EZ EP        118 10.16   39                         43   -0.3110  150 112 
                                                                                
 2014  127 1050 49.6 RQ 39.424 -29.951 10.6 *AZO 16 0.3 3.3LAZO 3.4CAZO        1
 GAP=330        0.86      69.5   171.5302.4 -0.1183E+05 -0.5180E+05  0.2093E+05E
 ACTION:UPD 24-11-22 11:01 OP:RS   STATUS:               ID:20140127105049     I
 OP: CVUA-BC/RS                                                                3
 STATUS: OK                                                                    3
 PUB: EPI                                                                      3
 WEB: SIM                                                                      3
 OBS: Sismo sem qualidade para calculo MW                                      3
 REGIAO: Crista Media Atlantica,SZ32,FE95 405                                  3
 2014-01-27-1050-32S_SWARM.SEI                                                 6
 2014-01-27-1050-33S_SWARM.SEI                                                 6
 STAT SP IPHASW D HRMM SECON CODA AMPLIT PERI AZIMU VELO AIN AR TRES W  DIS CAZ7
 PTCA EZ EP       1051  8.05   48                         64   -0.1210  137 133 
 PCUT EN E        1051 22.08                                            139 129 
 PCTB EN ES       1051 24.04                              64    0.3210  144 133 
 PLGR EZ EP       1051  9.18   51                         64   -0.3210  147 129 
 PLGR EN ES       1051 23.50                              64   -0.8910  147 129 
 PLGR EZ  IAML    1051 25.05       310.0 0.28                           147 129 
 PCND EZ EP       1051 12.06   82                         64    0.0510  167 129 
 PCND EN ES       1051 28.72                              64   -0.0710  167 129 
 ROSA BZ EP   9   1051 10.64   71                         64   -1.37 0  167 117 
 ROSA BN ES       1051 27.64                                    0.2210  167 117 
 PCND EZ  IAML    1051 30.10       115.6 0.26                           167 129 
 PVIA EE ES       1051 28.76                              64   -0.1810  168 103 
 PTEI EZ EP       1051 12.68   66                         64   -0.0310  172 126 
 PTEI EZ  IAML    1051 32.57       227.7 0.59                           172 126 
 STGR EN E        1051 28.60                                            172 102 
 PTEI EN ES       1051 30.20                              64    0.1810  172 126 
 PAMA EZ E        1051 17.05                                            174 118 
 PBOI EZ EP       1051 13.25   72                         64    0.2310  175 128 
 PBOI EN ES       1051 31.06                              64    0.5010  175 128 
 PBOI EZ  IAML    1051 32.34        79.8 0.28                           175 128 
 PLUZ EE E        1051 29.98                                            176 104 
 PPAD EZ EP       1051 21.80                              64    0.1910  244 108 
 PVNV EZ EP       1051 22.72   49                         64    0.0610  253 106 
 PRIB EZ EP       1051 22.77   50                         64   -0.1510  255 108 
 PFAV EZ EP       1051 23.86   57                         64    0.2410  260 107 
                                                                                
 2014  129 1950 45.0 LQ 37.276 -24.604  0.0 *AZO 12 0.3 2.2LAZO 2.6CAZO        1
 GAP=272        0.94       4.5    42.0 27.5 -0.1606E+03  0.1136E+04 -0.1079E+03E
 ACTION:UPD 24-11-22 11:01 OP:RS   STATUS:               ID:20140129195045     I
 OP: CVUA-BC/AR                                                                3
 STATUS: OK                                                                    3
 PUB: EPI                                                                      3
 WEB: SIM                                                                      3
 REGIAO: E Ilheus das Formigas,SZ10,FE95 404                                   3
 2014-01-29-1950-17S_SWARM.SEI                                                 6
 STAT SP IPHASW D HRMM SECON CODA AMPLIT PERI AZIMU VELO AIN AR TRES W  DIS CAZ7
 PSPR EZ IP     C 1950 53.77   48                         50   -0.0210 53.3 226 
 PSPR EE ES       1951  0.94                              50    0.5410 53.3 226 
 PSPR EZ  IAML    1951  1.45        70.6 0.14                          53.3 226 
 PVPO EZ EP       1950 54.42   44                         50   -0.4010 60.9 234 
 PVPO EN ES       1951  1.85                              50   -0.3610 60.9 234 
 PVPO EZ  IAML    1951  2.72        36.4 0.12                          60.9 234 
 MIRA EZ ES       1951  6.99                              43   -0.3810 82.2 314 
 FRA1 EZ EP       1950 57.55   30                         43   -0.4210 84.1 308 
 FRA1 EN ES       1951  7.73                              43    0.0110 84.1 308 
 PCNG EN E        1951  9.55                                           88.7 308 
 VIF  EN ES       1951  9.55                              43    0.4210 90.4 305 
 PRCH EZ EP       1950 59.47   34                         43    0.5110 92.3 303 
 PRCH EN ES       1951  9.38                              43   -0.0710 92.3 303 
 PRCH EZ  IAML    1951 10.33       143.0 0.31                          92.3 303 
 MESC EZ EP       1950 59.46   45                         43    0.2110 94.0 308 
 MESC EN ES       1951 10.38                              43    0.4310 94.0 308 
 LFA  EZ EP       1950 59.65   43                         43    0.2510 95.3 306 
 LFA  EZ E        1951  9.51                                           95.3 306 
 PMAT EN ES       1951 10.46                              43   -0.0810 97.3 308 
 CMLA B2 ES   4   1951  9.71                              43   -0.95 0 97.7 304 
 CML  EZ EP       1950 59.67   45                         43   -0.2310 99.8 304 
 CML  EZ ES       1951 10.69                              43   -0.4110 99.8 304 
 FAC  EZ E        1951 13.79                                            108 301 
                                                                                
