 2014  1 5 0332 36.3 LQ 38.433 -28.403  0.0 *AZO 11 0.5 2.8LAZO                1
 GAP=208        1.45       9.4     4.7  8.3 -0.1953E+02  0.2063E+02 -0.5068E+02E
 ACTION:UPD 24-11-22 11:01 OP:RS   STATUS:               ID:20140105033236     I
 OP: CVUA-RM/RC                                                                3
 STATUS: OK    SENTIDO                                                         3
 SENTIDO: II/III  -Pico: S. Caetano                                            3
 PUB: NAO                                                                      3
 WEB: SIM                                                                      3
 OBS: Por ordem do CT nao foi emitido novo comunicado                          3
 OBS: Sismo sobreposto                                                         3
 REGIAO: Pico,VZ14,SZ06,FE95 405                                               3
     S. Caetano         F  2 +MM                                        AZO    2
 2014-01-05-0331-37S_SWARM.SEI                                                 6
 STAT SP IPHASW D HRMM SECON CODA AMPLIT PERI AZIMU VELO AIN AR TRES W  DIS CAZ7
 PBOI EZ EP        332 36.87                             102    0.1210 2.48  82 
 PBOI EZ E         332 37.72                                           2.48  82 
 PBOI EN E         332 37.73                             101           2.48  82 
 PCND EZ EP        332 37.04                              96   -0.4310 6.51 308 
 PCND EN E         332 38.28                              97           6.51 308 
 PCND EZ  IAML     332 38.42     15553.4 0.30                          6.51 308 
 PTEI EZ EP        332 37.21                              96   -0.5410 7.99  31 
 PTEI EN E         332 38.82                              96           7.99  31 
 PTEI EZ  IAML     332 40.06     16089.8 0.48                          7.99  31 
 PLGR EZ EP        332 40.80                              59   -0.1310 26.4 311 
 PLGR EN ES        332 43.64                              59   -0.7710 26.4 311 
 PCTB EZ EP        332 41.70                              59    0.0410 31.3 290 
 PCTB EN ES        332 46.87                              59    1.1810 31.3 290 
 PCTB EZ  IAML     332 48.56       793.4 0.48                          31.3 290 
 PAMA EZ EP        332 42.17                              59    0.1410 33.6  35 
 PAMA EN ES        332 46.74                              59    0.3910 33.6  35 
 PAMA EZ  IAML     332 48.13      1860.1 0.42                          33.6  35 
 PCUT EE E         332 48.90                                           34.3 309 
 ROSA BZ EP   9    332 41.30                              59   -0.91 0 34.8  24 
 ROSA BN ES        332 46.33                              59    0.5810 34.8  24 
 PTCA EN E         332 48.36                                           38.2 296 
 PLUZ EN E         332 55.18                                           74.6  30 
 STGR EZ E         332 48.34                                           79.8  26 
                                                                                
 2014  1 5 0333  4.5 LQ 38.431 -28.405  0.0 *AZO 10 0.4 2.6LAZO 2.6CAZO        1
 GAP=214        1.01       5.2     3.4  5.0 -0.8103E+01  0.1158E+02 -0.9278E+01E
 ACTION:UPD 24-11-22 11:01 OP:RS   STATUS:               ID:20140105033304     I
 OP: CVUA-RM/RC                                                                3
 STATUS: OK    SENTIDO                                                         3
 SENTIDO: II/III  -Pico: S. Caetano                                            3
 PUB: NAO                                                                      3
 WEB: SIM                                                                      3
 OBS: Por ordem do CT nao foi emitido novo comunicado                          3
 REGIAO: Pico,VZ14,SZ06,FE95 405                                               3
     S. Caetano         F  2 +MM                                        AZO    2
 2014-01-05-0331-37S_SWARM.SEI                                                 6
 STAT SP IPHASW D HRMM SECON CODA AMPLIT PERI AZIMU VELO AIN AR TRES W  DIS CAZ7
 PBOI EZ EP        333  5.10   48                        101    0.1110 2.70  76 
 PBOI EN E         333  5.94                                           2.70  76 
 PCND EZ EP        333  5.32   51                         96   -0.3710 6.56 311 
 PCND EN E         333  6.53                                           6.56 311 
 PTEI EZ EP        333  5.42   52                         96   -0.5910 8.32  31 
 PTEI EN ES        333  6.96                              96   -0.1910 8.32  31 
 PTEI EZ  IAML     333  8.23     13778.4 0.34                          8.32  31 
 PLGR EZ EP        333  8.99                              59   -0.1510 26.5 312 
 PLGR EN ES        333 12.45                              59   -0.1810 26.5 312 
 PLGR EZ  IAML     333 13.67       617.9 0.30                          26.5 312 
 PCTB EZ EP        333  9.95                              59    0.1010 31.3 291 
 PCTB EN ES        333 13.85                              59   -0.0310 31.3 291 
 PAMA EN ES        333 15.36                              59    0.7210 33.9  35 
 PCUT EN ES        333 14.68                              59   -0.0710 34.4 309 
 PCUT EZ  IAML     333 16.71       530.5 0.47                          34.4 309 
 ROSA BN ES   4    333 16.65                              59    1.70 0 35.1  24 
 PTCA EN ES        333 16.43                              59    0.6610 38.1 297 
 PTCA EZ  IAML     333 16.98       652.6 0.37                          38.1 297 
 PLUZ EN E         333 25.77                                           74.9  30 
 STGR EN E         333 24.54                                           80.2  26 
                                                                                
 2014  1 6 0839 22.5 LQ 38.082 -26.498  0.0 *AZO 19 0.3 2.8LAZO 2.7CAZO        1
 GAP=199        0.92      16.1    14.1  5.6  0.2263E+03 -0.6104E+02 -0.7019E+02E
 ACTION:UPD 24-11-22 11:01 OP:RS   STATUS:               ID:20140106083922     I
 OP: CVUA-AR                                                                   3
 STATUS: OK                                                                    3
 PUB: EPI                                                                      3
 WEB: SIM                                                                      3
 REGIAO: Fossa Hirondelle,SZ18,FE95 405                                        3
 2014-01-06-0839-02S_SWARM.SEI                                                 6
 STAT SP IPHASW D HRMM SECON CODA AMPLIT PERI AZIMU VELO AIN AR TRES W  DIS CAZ7
 SET4 EZ EP        839 32.92   44                         50   -0.1310 65.6 110 
 SET4 EZ ES        839 40.72                              50   -0.2310 65.6 110 
 SET2 EZ EP        839 33.33   41                         50    0.1710 66.2 113 
 SET2 EZ ES        839 41.05                              50   -0.0910 66.2 113 
 PFET EZ EP        839 33.07   45                         50   -0.4310 68.9 115 
 PSAN EZ EP        839 34.49   38                         50    0.4810 72.5 110 
 PSAN EZ ES        839 42.69                              50    0.0610 72.5 110 
 FAC  EZ ES        839 44.88                              43    0.1510 82.0 114 
 PFAV EZ EP        839 35.60   47                         43   -0.1810 86.6 324 
 PFAV EN IS        839 45.57                              43   -0.1610 86.6 324 
 PFAV EZ  IAML     839 45.61        78.0 0.28                          86.6 324 
 PRIB EZ EP        839 35.52   42                         43   -0.4810 88.1 318 
 PRIB EN ES        839 46.30                              43    0.1910 88.1 318 
 PRIB EZ  IAML     839 46.91       173.0 0.28                          88.1 318 
 CML  EZ EP        839 36.79   52                         43    0.5010 90.5 112 
 CMLA B2 ES   4    839 50.79                              43    3.70 0 92.6 112 
 PVNV EZ EP        839 36.34   46                         43   -0.4710 94.8 323 
 PVNV EN ES        839 47.55                              43    0.0210 94.8 323 
 PVNV EZ  IAML     839 47.85       148.4 0.29                          94.8 323 
 PMAT EN ES        839 47.10                              43   -0.4810 94.9 108 
 PMAT EZ  IAML     839 47.62       420.5 0.58                          94.9 108 
 LFA  EZ EP        839 36.53   52                         43   -0.4510 95.6 111 
 PPAD EZ EP        839 37.15   49                         43    0.0110 97.3 315 
 PPAD EN IS        839 48.59                              43    0.4910 97.3 315 
 PPAD EZ  IAML     839 49.04       149.7 0.25                          97.3 315 
 PRCH EZ EP        839 37.21   41                         43    0.0210 97.8 113 
 PRCH EN ES        839 48.28                              43    0.0910 97.8 113 
 MESC EZ EP        839 37.08   46                         43   -0.2010 97.9 109 
 MESC EN ES        839 48.14                              43   -0.2110 97.9 109 
 MESC EZ  IAML     839 48.28       160.4 0.36                          97.9 109 
 VIF  EN ES        839 48.93                              43    0.0910  100 112 
 PBIS EN E         839 50.26                                            100 319 
 ASBA EN ES        839 49.44                              43    0.3210  102 314 
 PCNG EZ EP        839 37.94   39                         43    0.0510  103 109 
 PCNG EN ES        839 50.30                              43    0.8810  103 109 
 MIRA EZ E         839 51.05                                            112 107 
                                                                                
 2014  1 8 2246  5.4 LQ 38.460 -29.065  8.7 *AZO  7 0.1 2.1LAZO 2.0CAZO        1
 GAP=327        0.40       3.5     3.3  4.2 -0.2535E+01 -0.1768E+01  0.9548E+01E
 ACTION:UPD 24-11-22 11:01 OP:RS   STATUS:               ID:20140108224605     I
 OP: CVUA-SA/AR                                                                3
 STATUS: OK                                                                    3
 PUB: EPI                                                                      3
 WEB: SIM                                                                      3
 REGIAO: WSW Faial,SZ31,FE95 405                                               3
 2014-01-08-2245-41S_SWARM.SEI                                                 6
 STAT SP IPHASW D HRMM SECON CODA AMPLIT PERI AZIMU VELO AIN AR TRES W  DIS CAZ7
 PTCA EZ EP       2246 10.07   19                         96    0.1710 27.2  59 
 PTCA EN ES       2246 13.49                              96    0.2210 27.2  59 
 PTCA EZ  IAML    2246 14.04       389.6 0.16                          27.2  59 
 PCTB EZ EP       2246 10.14   20                         95   -0.0510 29.3  74 
 PCTB EN ES       2246 13.80                              95    0.0310 29.3  74 
 PCTB EZ  IAML    2246 14.63       353.7 0.28                          29.3  74 
 PCUT EZ EP       2246 11.05   21                         94   -0.0910 36.0  59 
 PCUT EN ES       2246 15.34                              94   -0.0910 36.0  59 
 PCUT EZ  IAML    2246 15.76       459.8 0.09                          36.0  59 
 PLGR EN ES       2246 16.34                              93   -0.2310 40.5  69 
 PLGR EZ  IAML    2246 16.51       114.5 0.30                          40.5  69 
 PCND EZ EP       2246 13.44   29                         92   -0.0410 52.6  89 
 PCND EN ES       2246 19.47                              92   -0.0610 52.6  89 
 PCND EZ  IAML    2246 19.88        36.3 0.19                          52.6  89 
 PBOI EZ EP       2246 14.51   29                         64   -0.0210 60.2  92 
 PBOI EN ES       2246 21.54                              64    0.1710 60.2  92 
 PBOI EZ  IAML    2246 21.57        43.4 0.16                          60.2  92 
 PTEI EN E        2246 22.41                                           61.9  86 
                                                                                
 2014  1 9 0607  7.2 LQ 37.714 -26.259  0.0 *AZO 17 0.3 2.1LAZO 2.4CAZO        1
 GAP=235        0.87       4.9     2.7  3.6  0.9360E+01 -0.1490E+01 -0.5738E+01E
 ACTION:UPD 24-11-22 11:01 OP:RS   STATUS:               ID:20140109060707     I
 OP: CVUA-IA/AR                                                                3
 STATUS: OK                                                                    3
 PUB: EPI                                                                      3
 WEB: SIM                                                                      3
 REGIAO: S Fossa Hirondelle,SZ18,FE95 405                                      3
 2014-01-09-0606-43S_SWARM.SEI                                                 6
 STAT SP IPHASW D HRMM SECON CODA AMPLIT PERI AZIMU VELO AIN AR TRES W  DIS CAZ7
 SET2 EZ EP        6 7 14.10   34                         59   -0.2510 42.4  70 
 SET2 EZ ES        6 7 20.26                              59    0.5510 42.4  70 
 PFET EZ EP        6 7 14.10   33                         59   -0.3510 43.1  74 
 PFET EZ ES        6 7 19.81                              59   -0.0610 43.1  74 
 SET4 EZ EP        6 7 14.08   36                         59   -0.5710 44.3  66 
 SET4 EZ ES        6 7 20.58                              59    0.3610 44.3  66 
 PSAN EZ EP        6 7 14.96   36                         59   -0.4810 49.4  72 
 PSAN EZ ES        6 7 20.98                              59   -0.6310 49.4  72 
 FAC  EZ EP        6 7 16.25   30                         50    0.1210 54.1  83 
 FAC  EZ ES        6 7 22.63                              50   -0.1910 54.1  83 
 CML  EZ EP        6 7 17.38   39                         50   -0.0310 63.2  84 
 CML  EZ ES        6 7 25.28                              50    0.2210 63.2  84 
 CMLA B2 ES   4    6 7 24.33                              50   -1.17 0 65.0  85 
 PVER EN ES        6 7 25.52                              50   -0.2610 66.4  82 
 PRCH EZ EP        6 7 18.23   34                         50    0.0710 68.7  88 
 PRCH EN ES        6 7 26.56                              50    0.1910 68.7  88 
 PRCH EZ  IAML     6 7 27.56       149.5 0.19                          68.7  88 
 LFA  EZ EP        6 7 18.54   33                         50    0.3110 68.8  84 
 PMAT EZ EP        6 7 18.33   24                         50   -0.0610 70.4  80 
 PMAT EN ES        6 7 26.55                              50   -0.2310 70.4  80 
 PMAT EZ  IAML     6 7 26.62        84.8 0.16                          70.4  80 
 MESC EN ES        6 7 27.35                              50    0.0010 72.3  83 
 MESC EZ  IAML     6 7 28.22        30.4 0.19                          72.3  83 
 VIF  EN ES        6 7 27.75                              50    0.4010 72.4  87 
 VIF  EZ  IAML     6 7 28.20        43.6 0.25                          72.4  87 
 PCNG EN ES        6 7 28.88                              43    0.5910 76.4  85 
 FRA1 EN ES        6 7 29.08                              43    0.0010 80.0  87 
 FRA1 EZ  IAML     6 7 30.04        47.2 0.24                          80.0  87 
 PFAV EN ES        6 7 40.40                              43    0.0010  132 327 
 PFAV EZ  IAML     6 7 41.27        17.2 0.27                           132 327 
 PRIB EN ES        6 7 40.76                              43    0.1110  133 323 
 PRIB EZ  IAML     6 7 41.85        25.3 0.28                           133 323 
 PVNV EN ES        6 7 42.35                              43    0.1610  140 326 
                                                                                
 2014  1 9 1503 59.5 LQ 38.063 -26.236  0.0 *AZO 20 0.3 2.3LAZO 2.7CAZO        1
 GAP=183        0.83      11.8     9.6  3.7  0.1125E+03 -0.2100E+02 -0.2738E+02E
 ACTION:UPD 24-11-22 11:01 OP:RS   STATUS:               ID:20140109150359     I
 OP: CVUA-BC/RS                                                                3
 STATUS: OK                                                                    3
 PUB: EPI                                                                      3
 WEB: SIM                                                                      3
 REGIAO: Fossa Hirondelle,SZ18,FE95 405                                        3
 2014-01-09-1503-33S_SWARM.SEI                                                 6
 STAT SP IPHASW D HRMM SECON CODA AMPLIT PERI AZIMU VELO AIN AR TRES W  DIS CAZ7
 SET4 EZ EP       15 4  6.75   53                         59   -0.0610 43.7 118 
 SET4 EZ ES       15 4 12.56                              59    0.2510 43.7 118 
 SET2 EZ EP       15 4  7.11                              59    0.1110 44.9 123 
 PFET EZ EP       15 4  7.36   36                         59   -0.0810 47.8 125 
 PFET EZ ES       15 4 13.61                              59    0.2010 47.8 125 
 PSAN EZ EP       15 4  7.63   43                         59   -0.2510 50.6 118 
 PSAN EZ ES       15 4 14.44                              59    0.2510 50.6 118 
 CML  EZ EP       15 4 10.11                              50   -0.3210 68.8 118 
 PVER EN ES       15 4 18.74                              50   -0.1710 70.0 115 
 CMLA BZ EP   9   15 4  9.53   54                         50   -1.19 0 70.8 118 
 CMLA B1 ES       15 4 18.27                                    0.3010 70.8 118 
 PMAT EZ EP       15 4 10.60   44                         50   -0.3610 72.6 112 
 PMAT EN ES       15 4 19.36                              50   -0.2110 72.6 112 
 PMAT EZ  IAML    15 4 20.21       258.3 0.17                          72.6 112 
 LFA  EZ IP       15 4 10.76   54                         50   -0.3910 73.6 116 
 MESC EZ EP       15 4 10.99   54                         50   -0.4610 75.6 113 
 MESC EN ES       15 4 20.08                              50   -0.3510 75.6 113 
 MESC EZ  IAML    15 4 20.34        71.7 0.19                          75.6 113 
 PRCH EN ES       15 4 20.71                              43    0.2910 76.2 119 
 VIF  EZ EP       15 4 12.18   44                         43    0.4010 78.4 116 
 VIF  EN ES       15 4 21.37                              43    0.3610 78.4 116 
 VIF  EZ  IAML    15 4 22.08        64.5 0.20                          78.4 116 
 PCNG EN ES       15 4 21.78                              43    0.2610 80.8 114 
 FRA1 EN ES       15 4 22.94                              43    0.4210 85.4 114 
 FRA1 EZ  IAML    15 4 23.65        69.7 0.16                          85.4 114 
 MIRA EZ EP       15 4 12.78   35                         43   -0.4110 89.6 110 
 MIRA EZ ES       15 4 23.52                              43    0.0410 89.6 110 
 PFAV EN ES       15 4 26.99                              43    0.6510  103 314 
 PRIB EE ES       15 4 26.99                              43   -0.0310  106 310 
 PRIB EZ  IAML    15 4 27.46        63.8 0.14                           106 310 
 PVNV EN ES       15 4 27.95                              43   -0.2210  112 314 
 PVNV EZ  IAML    15 4 28.81        33.2 0.19                           112 314 
 PPAD EN ES       15 4 29.18                              43    0.0410  116 308 
 PPAD EZ  IAML    15 4 29.49        18.7 0.12                           116 308 
 ASBA EN ES       15 4 30.19                              43    0.0110  120 308 
                                                                                
